#aV2016  1 21  0  0  0.00000000     288 DD+AD WGS84 FIT  NGA
## 1880 345600.00000000   300.00000000 57408 0.0000000000000
+   31     1  2  3  5  6  7  8  9 10 11 12 13 14 15 16 17 18
+         19 20 21 22 23 24 25 26 27 28 29 30 31 32  0  0  0
+          0  0  0  0  0  0  0  0  0  0  0  0  0  0  0  0  0
+          0  0  0  0  0  0  0  0  0  0  0  0  0  0  0  0  0
+          0  0  0  0  0  0  0  0  0  0  0  0  0  0  0  0  0
++         2  2  2  2  2  2  2  2  2  2  2  2  2  2  2  2  2
++         2  2  2  2  2  2  2  2  2  2  2  2  2  2  0  0  0
++         0  0  0  0  0  0  0  0  0  0  0  0  0  0  0  0  0
++         0  0  0  0  0  0  0  0  0  0  0  0  0  0  0  0  0
++         0  0  0  0  0  0  0  0  0  0  0  0  0  0  0  0  0
%c cc cc ccc ccc cccc cccc cccc cccc ccccc ccccc ccccc ccccc
%c cc cc ccc ccc cccc cccc cccc cccc ccccc ccccc ccccc ccccc
%f  0.0000000  0.000000000  0.00000000000  0.000000000000000
%f  0.0000000  0.000000000  0.00000000000  0.000000000000000
%i    0    0    0    0      0      0      0      0         0
%i    0    0    0    0      0      0      0      0         0
/*      NGA, ST. LOUIS,MO.                                  
/*   EPHEMERIS COMPUTED FROM 2 DAYS OF DATA                 
/*   EPOCHA v2.4 SMOOTHER                                   
/*   G1762 IERS2010 SATAF SATAPC                            
*  2016  1 21 23 55  0.00000000
P  1 -13226.345139 -13483.552789 -18832.790596      9.730962                    
V  1  23702.811979   -523.035707 -16126.750960      0.009687                    
P  2 -11187.133045  14370.575707  19604.703681    599.326017                    
V  2 -24230.337455  -1286.519160 -13584.272395      0.002530                    
P  3 -12825.479530 -23249.965597    182.491171    -14.627231                    
V  3   2428.634596  -1591.334772 -31720.790340     -0.049520                    
P  5  -1817.244223  20781.921905  16256.598016   -153.221429                    
V  5 -12189.810483 -17121.613821  20629.348576      0.035110                    
P  6 -23282.602558   6934.843469  10731.621793    132.970654                    
V  6 -13561.301987  -2679.412049 -27711.791536      0.061742                    
P  7 -25061.447609  -6176.333045   7207.341095    472.842944                    
V  7   8966.757503  -1674.639599  29911.009915     -0.014916                    
P  8   2934.228439 -22785.842407 -13263.038243    -20.919173                    
V  8  10656.355290 -13352.313087  25198.071139     -0.014578                    
P  9 -14774.226394  -4920.232866  21498.069273     54.772565                    
V  9  13784.581010 -23637.535135   4050.162122      0.078330                    
P 10  16186.189970  -1177.626147 -21027.125890     49.126612                    
V 10  12263.837358  23740.697995   8059.148356     -0.010627                    
P 11  -7792.592619 -15072.054136 -20990.914825   -628.439864                    
V 11  24146.568167  -8852.921280  -2617.957390     -0.018624                    
P 12   9466.098697  24729.850114  -3372.749830    362.633717                    
V 12  -3286.994876  -2975.584815 -31871.235547      0.026938                    
P 13 -11476.299576  22906.339040  -7320.671473   -180.050764                    
V 13  -7324.799053   5803.990353  30120.658700     -0.025741                    
P 14  19641.398211 -10707.771979 -13954.505447      7.773683                    
V 14  -8815.507379  16072.667592 -24454.054223     -0.023136                    
P 15   1694.308138  21367.167210 -15586.570993   -293.401840                    
V 15 -11779.724529  16149.680363  21366.224860     -0.018526                    
P 16   3117.131034 -19915.372468  17002.263037    -46.344512                    
V 16  10429.076962  19244.076520  20898.115118      0.032606                    
P 17 -19095.911868  10337.374458 -14829.466448   -199.237906                    
V 17   9248.121681 -17232.929225 -23606.546757     -0.007691                    
P 18  19079.681976  11098.475674 -14444.992857    475.458142                    
V 18   7229.104336  18047.841931  22340.266383      0.038235                    
P 19 -20152.306849  11315.192884 -13717.157394   -524.536062                    
V 19   8837.745507 -14411.957627 -24876.513212     -0.001637                    
P 20  12433.298187  23209.188629   3079.045827    387.372730                    
V 20  -5557.447802  -1294.413152  30672.362740      0.026772                    
P 21  26210.093856   3424.670608   4620.757973   -506.460977                    
V 21  -4950.282724   3189.545822  30288.633950     -0.019922                    
P 22   9715.729012 -13815.442318 -20260.325607    408.356069                    
V 22  14300.892971  22212.726661  -8358.521953     -0.049448                    
P 23  -7056.768341 -16068.503131  19983.886178   -156.139360                    
V 23  14342.621319 -20739.796713 -12144.297703     -0.019141                    
P 24  10219.311987  14303.914070 -20007.861276    -11.122932                    
V 24 -25289.238281   1010.561058 -12035.669518     -0.005552                    
P 25  16907.038781  18538.335409   8888.981057   -103.517067                    
V 25   3722.060271  10904.164741 -29299.550080     -0.064532                    
P 26  10294.183141 -12123.238768  21272.222330   -221.342335                    
V 26  13614.265428  23331.402737   6743.452206     -0.164277                    
P 27  11022.004178 -23721.333970  -4156.366944     55.560042                    
V 27   4956.419500  -3158.669280  31468.427876      0.034849                    
P 28 -15484.697310   -825.661328 -20939.285142    496.978548                    
V 28 -11008.413001 -25753.320241   8837.751236      0.026594                    
P 29  12252.649300   8463.150528  22010.192638    652.360896                    
V 29 -15782.334873  22956.378955     -1.510138      0.010348                    
P 30 -26347.851221    132.828116  -3682.569773     87.212565                    
V 30  -4368.996149  -3353.917132  31090.931033      0.046467                    
P 31  22512.399278  -7271.309979  12548.628911    286.032324                    
V 31  15468.714094   2596.567002 -26139.705539     -0.015987                    
P 32  -3016.288131 -24671.828087 -10154.982751     88.921619                    
V 32   7404.158809  10526.749914 -27461.382342      0.130416                    
EOF
